{
  "norad_id": 60507,
  "name": "TANAGER-1",
  "history": [
    {
      "epoch": "2026-03-28T08:43:51.558816Z",
      "apogee_km": 440.65594611248616,
      "perigee_km": 430.3516771130844,
      "latitude_deg": 4.994626669211353e-06,
      "longitude_deg": -135.75053371918042,
      "height_km": 442.7329415042669,
      "semi_major_axis_km": 6813.640811612785,
      "eccentricity": 0.00075615,
      "inclination_deg": 97.3762,
      "raan_deg": 180.9996,
      "arg_perigee_deg": 217.2755,
      "mean_anomaly_deg": 142.7969,
      "mean_motion_rev_day": 15.43596939
    },
    {
      "epoch": "2026-03-29T04:57:26.663904Z",
      "apogee_km": 440.5076356351374,
      "perigee_km": 430.6127845466435,
      "latitude_deg": -1.3082254129199292e-05,
      "longitude_deg": -79.12517220921984,
      "height_km": 442.6766051994433,
      "semi_major_axis_km": 6813.69721009089,
      "eccentricity": 0.0007261,
      "inclination_deg": 97.3754,
      "raan_deg": 181.8519,
      "arg_perigee_deg": 216.3002,
      "mean_anomaly_deg": 143.7754,
      "mean_motion_rev_day": 15.43577774
    }
  ]
}